start=new Date('2022-09-15T00:00:00.000Z').valueOf();
sats=[{"PERIOD":"95.592","MEAN_MOTION":"15.06398281","APOAPSIS":"548.267","CENTER_NAME":"EARTH","MEAN_ANOMALY":"291.6177","OBJECT_TYPE":"PAYLOAD","LAUNCH_DATE":"2020-10-24","NORAD_CAT_ID":"46792","TIME_SYSTEM":"UTC","TLE_LINE2":"2 46792  53.0561 261.5871 0001514  68.4973 291.6177 15.06398281105101","OBJECT_ID":"2020-074BF","SEMIMAJOR_AXIS":"6925.354","CLASSIFICATION_TYPE":"U","COUNTRY_CODE":"US","EPHEMERIS_TYPE":"0","DECAY_DATE":null,"REF_FRAME":"TEME","RCS_SIZE":"LARGE","FILE":"3574287","MEAN_ELEMENT_THEORY":"SGP4","EPOCH":"2022-09-14T17:56:37.108608","RA_OF_ASC_NODE":"261.5871","REV_AT_EPOCH":"10510","ARG_OF_PERICENTER":"68.4973","OBJECT_NAME":"STARLINK-1934","ELEMENT_SET_NO":"999","MEAN_MOTION_DDOT":"0.0000000000000","PERIAPSIS":"546.170","GP_ID":"212611760","BSTAR":"0.00011582000000","MEAN_MOTION_DOT":"0.00001444","ECCENTRICITY":"0.00015140","SITE":"AFETR","TLE_LINE1":"1 46792U 20074BF  22257.74765172  .00001444  00000-0  11582-3 0  9991","INCLINATION":"53.0561"},{"APOAPSIS":"548.192","CENTER_NAME":"EARTH","MEAN_MOTION":"15.06394640","PERIOD":"95.592","NORAD_CAT_ID":"46793","LAUNCH_DATE":"2020-10-24","OBJECT_TYPE":"PAYLOAD","MEAN_ANOMALY":"281.8422","SEMIMAJOR_AXIS":"6925.365","OBJECT_ID":"2020-074BG","TIME_SYSTEM":"UTC","TLE_LINE2":"2 46793  53.0549 273.5544 0001389  78.2723 281.8422 15.06394640104894","EPOCH":"2022-09-14T07:28:58.996416","FILE":"3574027","MEAN_ELEMENT_THEORY":"SGP4","RCS_SIZE":"LARGE","REF_FRAME":"TEME","DECAY_DATE":null,"COUNTRY_CODE":"US","EPHEMERIS_TYPE":"0","CLASSIFICATION_TYPE":"U","ELEMENT_SET_NO":"999","OBJECT_NAME":"STARLINK-1941","REV_AT_EPOCH":"10489","ARG_OF_PERICENTER":"78.2723","RA_OF_ASC_NODE":"273.5544","MEAN_MOTION_DOT":"0.00000726","BSTAR":"0.00006766500000","GP_ID":"212581346","PERIAPSIS":"546.268","MEAN_MOTION_DDOT":"0.0000000000000","INCLINATION":"53.0549","TLE_LINE1":"1 46793U 20074BG  22257.31179394  .00000726  00000-0  67665-4 0  9996","SITE":"AFETR","ECCENTRICITY":"0.00013890"},{"RCS_SIZE":"LARGE","REF_FRAME":"TEME","DECAY_DATE":null,"EPOCH":"2022-09-14T10:50:40.117344","FILE":"3574027","MEAN_ELEMENT_THEORY":"SGP4","CLASSIFICATION_TYPE":"U","COUNTRY_CODE":"US","EPHEMERIS_TYPE":"0","OBJECT_NAME":"STARLINK-1942","ELEMENT_SET_NO":"999","ARG_OF_PERICENTER":"69.9919","RA_OF_ASC_NODE":"272.9273","REV_AT_EPOCH":"10492","PERIAPSIS":"546.161","GP_ID":"212580094","MEAN_MOTION_DOT":"0.00000140","BSTAR":"0.00002831700000","MEAN_MOTION_DDOT":"0.0000000000000","INCLINATION":"53.0535","ECCENTRICITY":"0.00015110","TLE_LINE1":"1 46794U 20074BH  22257.45185321  .00000140  00000-0  28317-4 0  9990","SITE":"AFETR","MEAN_MOTION":"15.06402069","PERIOD":"95.592","CENTER_NAME":"EARTH","APOAPSIS":"548.254","OBJECT_TYPE":"PAYLOAD","NORAD_CAT_ID":"46794","LAUNCH_DATE":"2020-10-24","MEAN_ANOMALY":"290.1233","SEMIMAJOR_AXIS":"6925.342","OBJECT_ID":"2020-074BH","TIME_SYSTEM":"UTC","TLE_LINE2":"2 46794  53.0535 272.9273 0001511  69.9919 290.1233 15.06402069104925"},{"PERIOD":"95.592","MEAN_MOTION":"15.06405407","CENTER_NAME":"EARTH","APOAPSIS":"548.272","OBJECT_TYPE":"PAYLOAD","LAUNCH_DATE":"2020-10-24","NORAD_CAT_ID":"46796","MEAN_ANOMALY":"279.1639","SEMIMAJOR_AXIS":"6925.332","OBJECT_ID":"2020-074BK","TLE_LINE2":"2 46796  53.0531 261.2512 0001552  80.9526 279.1639 15.06405407105110","TIME_SYSTEM":"UTC","DECAY_DATE":null,"REF_FRAME":"TEME","RCS_SIZE":"LARGE","MEAN_ELEMENT_THEORY":"SGP4","FILE":"3574287","EPOCH":"2022-09-14T19:48:04.492800","CLASSIFICATION_TYPE":"U","EPHEMERIS_TYPE":"0","COUNTRY_CODE":"US","OBJECT_NAME":"STARLINK-1944","ELEMENT_SET_NO":"999","ARG_OF_PERICENTER":"80.9526","RA_OF_ASC_NODE":"261.2512","REV_AT_EPOCH":"10511","GP_ID":"212611509","PERIAPSIS":"546.122","BSTAR":"0.00025691000000","MEAN_MOTION_DOT":"0.00003548","MEAN_MOTION_DDOT":"0.0000000000000","INCLINATION":"53.0531","ECCENTRICITY":"0.00015520","SITE":"AFETR","TLE_LINE1":"1 46796U 20074BK  22257.82505200  .00003548  00000-0  25691-3 0  9991"},{"MEAN_MOTION":"15.06389611","PERIOD":"95.593","CENTER_NAME":"EARTH","APOAPSIS":"548.250","OBJECT_TYPE":"PAYLOAD","NORAD_CAT_ID":"46798","LAUNCH_DATE":"2020-10-24","MEAN_ANOMALY":"285.7933","OBJECT_ID":"2020-074BM","SEMIMAJOR_AXIS":"6925.380","TLE_LINE2":"2 46798  53.0538 287.9006 0001450  74.3216 285.7933 15.06389611104715","TIME_SYSTEM":"UTC","RCS_SIZE":"LARGE","DECAY_DATE":null,"REF_FRAME":"TEME","EPOCH":"2022-09-14T11:00:35.811648","MEAN_ELEMENT_THEORY":"SGP4","FILE":"3574027","CLASSIFICATION_TYPE":"U","EPHEMERIS_TYPE":"0","COUNTRY_CODE":"US","OBJECT_NAME":"STARLINK-1948","ELEMENT_SET_NO":"999","REV_AT_EPOCH":"10471","RA_OF_ASC_NODE":"287.9006","ARG_OF_PERICENTER":"74.3216","PERIAPSIS":"546.241","GP_ID":"212581096","MEAN_MOTION_DOT":"-0.00000268","BSTAR":"0.00000092259000","MEAN_MOTION_DDOT":"0.0000000000000","INCLINATION":"53.0538","ECCENTRICITY":"0.00014500","TLE_LINE1":"1 46798U 20074BM  22257.45874782 -.00000268  00000-0  92259-6 0  9990","SITE":"AFETR"},{"PERIOD":"95.592","MEAN_MOTION":"15.06399294","APOAPSIS":"548.176","CENTER_NAME":"EARTH","OBJECT_TYPE":"PAYLOAD","LAUNCH_DATE":"2020-11-25","NORAD_CAT_ID":"47122","MEAN_ANOMALY":"277.7388","SEMIMAJOR_AXIS":"6925.351","OBJECT_ID":"2020-088A","TLE_LINE2":"2 47122  53.0543 251.8887 0001386  82.3758 277.7388 15.06399294100111","TIME_SYSTEM":"UTC","DECAY_DATE":null,"REF_FRAME":"TEME","RCS_SIZE":"LARGE","MEAN_ELEMENT_THEORY":"SGP4","FILE":"3574287","EPOCH":"2022-09-14T16:17:05.773056","CLASSIFICATION_TYPE":"U","EPHEMERIS_TYPE":"0","COUNTRY_CODE":"US","OBJECT_NAME":"STARLINK-1777","ELEMENT_SET_NO":"999","ARG_OF_PERICENTER":"82.3758","RA_OF_ASC_NODE":"251.8887","REV_AT_EPOCH":"10011","PERIAPSIS":"546.256","GP_ID":"212611046","BSTAR":"0.00012023000000","MEAN_MOTION_DOT":"0.00001510","MEAN_MOTION_DDOT":"0.0000000000000","INCLINATION":"53.0543","ECCENTRICITY":"0.00013860","SITE":"AFETR","TLE_LINE1":"1 47122U 20088A   22257.67853904  .00001510  00000-0  12023-3 0  9992"},{"RA_OF_ASC_NODE":"256.6739","ARG_OF_PERICENTER":"94.3547","REV_AT_EPOCH":"10005","OBJECT_NAME":"STARLINK-1785","ELEMENT_SET_NO":"999","CLASSIFICATION_TYPE":"U","EPHEMERIS_TYPE":"0","COUNTRY_CODE":"US","RCS_SIZE":"LARGE","REF_FRAME":"TEME","DECAY_DATE":null,"EPOCH":"2022-09-14T17:33:23.582880","MEAN_ELEMENT_THEORY":"SGP4","FILE":"3574287","ECCENTRICITY":"0.00013280","TLE_LINE1":"1 47124U 20088C   22257.73152295  .00001047  00000-0  89138-4 0  9993","SITE":"AFETR","INCLINATION":"53.0546","MEAN_MOTION_DDOT":"0.0000000000000","GP_ID":"212611797","PERIAPSIS":"546.282","MEAN_MOTION_DOT":"0.00001047","BSTAR":"0.00008913800000","MEAN_ANOMALY":"265.7593","OBJECT_TYPE":"PAYLOAD","NORAD_CAT_ID":"47124","LAUNCH_DATE":"2020-11-25","MEAN_MOTION":"15.06403856","PERIOD":"95.592","APOAPSIS":"548.121","CENTER_NAME":"EARTH","TLE_LINE2":"2 47124  53.0546 256.6739 0001328  94.3547 265.7593 15.06403856100058","TIME_SYSTEM":"UTC","OBJECT_ID":"2020-088C","SEMIMAJOR_AXIS":"6925.337"},{"APOAPSIS":"548.234","CENTER_NAME":"EARTH","MEAN_MOTION":"15.06396554","PERIOD":"95.592","MEAN_ANOMALY":"288.0509","NORAD_CAT_ID":"47126","LAUNCH_DATE":"2020-11-25","OBJECT_TYPE":"PAYLOAD","TIME_SYSTEM":"UTC","TLE_LINE2":"2 47126  53.0540 252.6653 0001458  72.0638 288.0509 15.06396554100098","SEMIMAJOR_AXIS":"6925.359","OBJECT_ID":"2020-088E","COUNTRY_CODE":"US","EPHEMERIS_TYPE":"0","CLASSIFICATION_TYPE":"U","EPOCH":"2022-09-14T12:07:38.415936","FILE":"3574027","MEAN_ELEMENT_THEORY":"SGP4","RCS_SIZE":"LARGE","REF_FRAME":"TEME","DECAY_DATE":null,"ARG_OF_PERICENTER":"72.0638","REV_AT_EPOCH":"10009","RA_OF_ASC_NODE":"252.6653","ELEMENT_SET_NO":"999","OBJECT_NAME":"STARLINK-1812","MEAN_MOTION_DDOT":"0.0000000000000","MEAN_MOTION_DOT":"0.00000232","BSTAR":"0.00003447700000","PERIAPSIS":"546.214","GP_ID":"212581383","TLE_LINE1":"1 47126U 20088E   22257.50530574  .00000232  00000-0  34477-4 0  9991","SITE":"AFETR","ECCENTRICITY":"0.00014580","INCLINATION":"53.0540"},{"MEAN_MOTION_DDOT":"0.0000000000000","GP_ID":"212610799","PERIAPSIS":"546.274","BSTAR":"0.00024210000000","MEAN_MOTION_DOT":"0.00003326","ECCENTRICITY":"0.00013780","SITE":"AFETR","TLE_LINE1":"1 47128U 20088G   22257.66195569  .00003326  00000-0  24210-3 0  9991","INCLINATION":"53.0525","CLASSIFICATION_TYPE":"U","EPHEMERIS_TYPE":"0","COUNTRY_CODE":"US","DECAY_DATE":null,"REF_FRAME":"TEME","RCS_SIZE":"LARGE","MEAN_ELEMENT_THEORY":"SGP4","FILE":"3574287","EPOCH":"2022-09-14T15:53:12.971616","ARG_OF_PERICENTER":"71.3859","RA_OF_ASC_NODE":"231.9702","REV_AT_EPOCH":"10039","OBJECT_NAME":"STARLINK-1837","ELEMENT_SET_NO":"999","TIME_SYSTEM":"UTC","TLE_LINE2":"2 47128  53.0525 231.9702 0001378  71.3859 288.7279 15.06395287100392","SEMIMAJOR_AXIS":"6925.363","OBJECT_ID":"2020-088G","PERIOD":"95.592","MEAN_MOTION":"15.06395287","CENTER_NAME":"EARTH","APOAPSIS":"548.182","MEAN_ANOMALY":"288.7279","OBJECT_TYPE":"PAYLOAD","LAUNCH_DATE":"2020-11-25","NORAD_CAT_ID":"47128"},{"TIME_SYSTEM":"UTC","TLE_LINE2":"2 47129  53.0543 241.5494 0001372  75.4222 284.6919 15.06399739100270","SEMIMAJOR_AXIS":"6925.349","OBJECT_ID":"2020-088H","MEAN_ANOMALY":"284.6919","OBJECT_TYPE":"PAYLOAD","NORAD_CAT_ID":"47129","LAUNCH_DATE":"2020-11-25","MEAN_MOTION":"15.06399739","PERIOD":"95.592","CENTER_NAME":"EARTH","APOAPSIS":"548.165","ECCENTRICITY":"0.00013720","TLE_LINE1":"1 47129U 20088H   22257.75686536 -.00000222  00000-0  40044-5 0  9999","SITE":"AFETR","INCLINATION":"53.0543","MEAN_MOTION_DDOT":"0.0000000000000","GP_ID":"212611546","PERIAPSIS":"546.264","MEAN_MOTION_DOT":"-0.00000222","BSTAR":"0.00000400440000","REV_AT_EPOCH":"10027","RA_OF_ASC_NODE":"241.5494","ARG_OF_PERICENTER":"75.4222","OBJECT_NAME":"STARLINK-1838","ELEMENT_SET_NO":"999","CLASSIFICATION_TYPE":"U","EPHEMERIS_TYPE":"0","COUNTRY_CODE":"US","RCS_SIZE":"LARGE","REF_FRAME":"TEME","DECAY_DATE":null,"EPOCH":"2022-09-14T18:09:53.167104","FILE":"3574287","MEAN_ELEMENT_THEORY":"SGP4"}];
